{"type": "FeatureCollection", "features": [ {"type": "Feature", "properties": {"norad_id": 30345, "name": "FENGYUN 1C DEB", "group": "fengyun-1c-debris", "lat": -42.816093225816736, "lon": 58.66093045612551, "alt_km": 758.5302236778416, "timestamp": "2025-12-16T17:51:11.207031+00:00", "meta": {"OBJECT_NAME": "FENGYUN 1C DEB", "OBJECT_ID": "1999-025ABG", "EPOCH": "2025-12-15T17:04:11.425440", "MEAN_MOTION": 14.41701147, "ECCENTRICITY": 0.00175504, "INCLINATION": 98.922, "RA_OF_ASC_NODE": 49.2136, "ARG_OF_PERICENTER": 233.815, "MEAN_ANOMALY": 126.1415, "EPHEMERIS_TYPE": 0, "CLASSIFICATION_TYPE": "U", "NORAD_CAT_ID": 30345, "ELEMENT_SET_NO": 999, "REV_AT_EPOCH": 97816, "BSTAR": 0.0012665631, "MEAN_MOTION_DOT": 4.091e-05, "MEAN_MOTION_DDOT": 0}, "tle": {"line1": "1 30345U 99025ABG 25349.71124335  .00004091  00000+0  12666-2 0  9995", "line2": "2 30345  98.9220  49.2136 0017550 233.8150 126.1415 14.41701147978163"}}, "geometry": {"type": "Point", "coordinates": [58.66093045612551, -42.816093225816736]}}, {"type": "Feature", "properties": {"norad_id": 30346, "name": "FENGYUN 1C DEB", "group": "fengyun-1c-debris", "lat": -79.3960536892341, "lon": 143.44304215199895, "alt_km": 789.8884928733132, "timestamp": "2025-12-16T17:51:11.207042+00:00", "meta": {"OBJECT_NAME": "FENGYUN 1C DEB", "OBJECT_ID": "1999-025ABH", "EPOCH": "2025-12-15T19:21:55.893024", "MEAN_MOTION": 14.33927536, "ECCENTRICITY": 0.00552281, "INCLINATION": 98.8088, "RA_OF_ASC_NODE": 86.5677, "ARG_OF_PERICENTER": 14.7468, "MEAN_ANOMALY": 107.7207, "EPHEMERIS_TYPE": 0, "CLASSIFICATION_TYPE": "U", "NORAD_CAT_ID": 30346, "ELEMENT_SET_NO": 999, "REV_AT_EPOCH": 97457, "BSTAR": 0.001287275, "MEAN_MOTION_DOT": 3.606e-05, "MEAN_MOTION_DDOT": 0}, "tle": {"line1": "1 30346U 99025ABH 25349.80689691  .00003606  00000+0  12873-2 0  9998", "line2": "2 30346  98.8088  86.5677 0055228  14.7468 107.7207 14.33927536974579"}}, "geometry": {"type": "Point", "coordinates": [143.44304215199895, -79.3960536892341]}}, {"type": "Feature", "properties": {"norad_id": 30347, "name": "FENGYUN 1C DEB", "group": "fengyun-1c-debris", "lat": 74.26465271143311, "lon": 142.71227199811995, "alt_km": 846.2642342693898, "timestamp": "2025-12-16T17:51:11.207053+00:00", "meta": {"OBJECT_NAME": "FENGYUN 1C DEB", "OBJECT_ID": "1999-025ABJ", "EPOCH": "2025-12-15T19:09:18.553824", "MEAN_MOTION": 13.9276997, "ECCENTRICITY": 0.01504716, "INCLINATION": 98.3767, "RA_OF_ASC_NODE": 173.3865, "ARG_OF_PERICENTER": 25.2521, "MEAN_ANOMALY": 350.6947, "EPHEMERIS_TYPE": 0, "CLASSIFICATION_TYPE": "U", "NORAD_CAT_ID": 30347, "ELEMENT_SET_NO": 999, "REV_AT_EPOCH": 96003, "BSTAR": 0.00019214974, "MEAN_MOTION_DOT": 2.35e-06, "MEAN_MOTION_DDOT": 0}, "tle": {"line1": "1 30347U 99025ABJ 25349.79813141  .00000235  00000+0  19215-3 0  9999", "line2": "2 30347  98.3767 173.3865 0150471  25.2521 350.6947 13.92769970960032"}}, "geometry": {"type": "Point", "coordinates": [142.71227199811995, 74.26465271143311]}}, {"type": "Feature", "properties": {"norad_id": 30348, "name": "FENGYUN 1C DEB", "group": "fengyun-1c-debris", "lat": -46.22090154103492, "lon": -103.7659632774915, "alt_km": 790.2738255401828, "timestamp": "2025-12-16T17:51:11.207064+00:00", "meta": {"OBJECT_NAME": "FENGYUN 1C DEB", "OBJECT_ID": "1999-025ABK", "EPOCH": "2025-12-15T05:46:56.377056", "MEAN_MOTION": 14.35132402, "ECCENTRICITY": 0.00171186, "INCLINATION": 98.8632, "RA_OF_ASC_NODE": 84.063, "ARG_OF_PERICENTER": 8.3375, "MEAN_ANOMALY": 18.0915, "EPHEMERIS_TYPE": 0, "CLASSIFICATION_TYPE": "U", "NORAD_CAT_ID": 30348, "ELEMENT_SET_NO": 999, "REV_AT_EPOCH": 97570, "BSTAR": 0.001354646, "MEAN_MOTION_DOT": 3.83e-05, "MEAN_MOTION_DDOT": 0}, "tle": {"line1": "1 30348U 99025ABK 25349.24093029  .00003830  00000+0  13546-2 0  9999", "line2": "2 30348  98.8632  84.0630 0017118   8.3375  18.0915 14.35132402975708"}}, "geometry": {"type": "Point", "coordinates": [-103.7659632774915, -46.22090154103492]}}, {"type": "Feature", "properties": {"norad_id": 30349, "name": "FENGYUN 1C DEB", "group": "fengyun-1c-debris", "lat": -37.523650220512906, "lon": 126.35217735350106, "alt_km": 913.254939425492, "timestamp": "2025-12-16T17:51:11.207074+00:00", "meta": {"OBJECT_NAME": "FENGYUN 1C DEB", "OBJECT_ID": "1999-025ABL", "EPOCH": "2025-12-15T20:39:04.332384", "MEAN_MOTION": 14.11131852, "ECCENTRICITY": 0.00892684, "INCLINATION": 98.5838, "RA_OF_ASC_NODE": 312.1688, "ARG_OF_PERICENTER": 3.539, "MEAN_ANOMALY": 49.7109, "EPHEMERIS_TYPE": 0, "CLASSIFICATION_TYPE": "U", "NORAD_CAT_ID": 30349, "ELEMENT_SET_NO": 999, "REV_AT_EPOCH": 96275, "BSTAR": 0.0015625742, "MEAN_MOTION_DOT": 2.88e-05, "MEAN_MOTION_DDOT": 0}, "tle": {"line1": "1 30349U 99025ABL 25349.86046681  .00002880  00000+0  15626-2 0  9995", "line2": "2 30349  98.5838 312.1688 0089268   3.5390  49.7109 14.11131852962750"}}, "geometry": {"type": "Point", "coordinates": [126.35217735350106, -37.523650220512906]}}, {"type": "Feature", "properties": {"norad_id": 30350, "name": "FENGYUN 1C DEB", "group": "fengyun-1c-debris", "lat": 69.16038846416295, "lon": 10.507225838833104, "alt_km": 1106.1703610818358, "timestamp": "2025-12-16T17:51:11.207087+00:00", "meta": {"OBJECT_NAME": "FENGYUN 1C DEB", "OBJECT_ID": "1999-025ABM", "EPOCH": "2025-12-15T18:49:12.822816", "MEAN_MOTION": 13.82819185, "ECCENTRICITY": 0.02192973, "INCLINATION": 98.0925, "RA_OF_ASC_NODE": 167.7333, "ARG_OF_PERICENTER": 300.3057, "MEAN_ANOMALY": 73.6489, "EPHEMERIS_TYPE": 0, "CLASSIFICATION_TYPE": "U", "NORAD_CAT_ID": 30350, "ELEMENT_SET_NO": 999, "REV_AT_EPOCH": 95024, "BSTAR": 0.00074047029, "MEAN_MOTION_DOT": 9.33e-06, "MEAN_MOTION_DDOT": 0}, "tle": {"line1": "1 30350U 99025ABM 25349.78417619  .00000933  00000+0  74047-3 0  9991", "line2": "2 30350  98.0925 167.7333 0219297 300.3057  73.6489 13.82819185950247"}}, "geometry": {"type": "Point", "coordinates": [10.507225838833104, 69.16038846416295]}}, {"type": "Feature", "properties": {"norad_id": 30352, "name": "FENGYUN 1C DEB", "group": "fengyun-1c-debris", "lat": 17.662713453496025, "lon": 8.887058992385537, "alt_km": 861.126899703976, "timestamp": "2025-12-16T17:51:11.207099+00:00", "meta": {"OBJECT_NAME": "FENGYUN 1C DEB", "OBJECT_ID": "1999-025ABP", "EPOCH": "2025-12-15T13:29:03.864192", "MEAN_MOTION": 14.07586675, "ECCENTRICITY": 0.00277326, "INCLINATION": 98.7643, "RA_OF_ASC_NODE": 10.556, "ARG_OF_PERICENTER": 311.1227, "MEAN_ANOMALY": 200.1824, "EPHEMERIS_TYPE": 0, "CLASSIFICATION_TYPE": "U", "NORAD_CAT_ID": 30352, "ELEMENT_SET_NO": 999, "REV_AT_EPOCH": 96950, "BSTAR": 0.00013464312, "MEAN_MOTION_DOT": 1.85e-06, "MEAN_MOTION_DDOT": 0}, "tle": {"line1": "1 30352U 99025ABP 25349.56185028  .00000185  00000+0  13464-3 0  9990", "line2": "2 30352  98.7643  10.5560 0027732 311.1227 200.1824 14.07586675969502"}}, "geometry": {"type": "Point", "coordinates": [8.887058992385537, 17.662713453496025]}}, {"type": "Feature", "properties": {"norad_id": 30355, "name": "FENGYUN 1C DEB", "group": "fengyun-1c-debris", "lat": 10.066513649134155, "lon": 176.50726470590064, "alt_km": 854.3444771822697, "timestamp": "2025-12-16T17:51:11.207111+00:00", "meta": {"OBJECT_NAME": "FENGYUN 1C DEB", "OBJECT_ID": "1999-025ABS", "EPOCH": "2025-12-15T11:19:25.436352", "MEAN_MOTION": 14.18827777, "ECCENTRICITY": 0.00530976, "INCLINATION": 98.5893, "RA_OF_ASC_NODE": 353.7375, "ARG_OF_PERICENTER": 301.5284, "MEAN_ANOMALY": 214.9276, "EPHEMERIS_TYPE": 0, "CLASSIFICATION_TYPE": "U", "NORAD_CAT_ID": 30355, "ELEMENT_SET_NO": 999, "REV_AT_EPOCH": 97389, "BSTAR": 0.00066587183, "MEAN_MOTION_DOT": 1.362e-05, "MEAN_MOTION_DDOT": 0}, "tle": {"line1": "1 30355U 99025ABS 25349.47182218  .00001362  00000+0  66587-3 0  9993", "line2": "2 30355  98.5893 353.7375 0053097 301.5284 214.9276 14.18827777973899"}}, "geometry": {"type": "Point", "coordinates": [176.50726470590064, 10.066513649134155]}}, {"type": "Feature", "properties": {"norad_id": 30356, "name": "FENGYUN 1C DEB", "group": "fengyun-1c-debris", "lat": -65.60904034705509, "lon": 146.17348852698203, "alt_km": 823.6967748338866, "timestamp": "2025-12-16T17:51:11.207121+00:00", "meta": {"OBJECT_NAME": "FENGYUN 1C DEB", "OBJECT_ID": "1999-025ABT", "EPOCH": "2025-12-15T22:15:53.197920", "MEAN_MOTION": 14.1304499, "ECCENTRICITY": 0.00520151, "INCLINATION": 98.681, "RA_OF_ASC_NODE": 345.0726, "ARG_OF_PERICENTER": 279.8354, "MEAN_ANOMALY": 137.9781, "EPHEMERIS_TYPE": 0, "CLASSIFICATION_TYPE": "U", "NORAD_CAT_ID": 30356, "ELEMENT_SET_NO": 999, "REV_AT_EPOCH": 97066, "BSTAR": 0.000688068, "MEAN_MOTION_DOT": 1.258e-05, "MEAN_MOTION_DDOT": 0}, "tle": {"line1": "1 30356U 99025ABT 25349.92769905  .00001258  00000+0  68807-3 0  9999", "line2": "2 30356  98.6810 345.0726 0052015 279.8354 137.9781 14.13044990970668"}}, "geometry": {"type": "Point", "coordinates": [146.17348852698203, -65.60904034705509]}}, {"type": "Feature", "properties": {"norad_id": 30357, "name": "FENGYUN 1C DEB", "group": "fengyun-1c-debris", "lat": -37.625297029743535, "lon": 24.739070581214698, "alt_km": 846.6446461056566, "timestamp": "2025-12-16T17:51:11.207131+00:00", "meta": {"OBJECT_NAME": "FENGYUN 1C DEB", "OBJECT_ID": "1999-025ABU", "EPOCH": "2025-12-15T20:40:05.545920", "MEAN_MOTION": 14.05263524, "ECCENTRICITY": 0.00487392, "INCLINATION": 98.8059, "RA_OF_ASC_NODE": 17.0197, "ARG_OF_PERICENTER": 321.3449, "MEAN_ANOMALY": 217.4865, "EPHEMERIS_TYPE": 0, "CLASSIFICATION_TYPE": "U", "NORAD_CAT_ID": 30357, "ELEMENT_SET_NO": 999, "REV_AT_EPOCH": 96850, "BSTAR": 3.8180522e-05, "MEAN_MOTION_DOT": 1.9e-07, "MEAN_MOTION_DDOT": 0}, "tle": {"line1": "1 30357U 99025ABU 25349.86117530  .00000019  00000+0  38181-4 0  9991", "line2": "2 30357  98.8059  17.0197 0048739 321.3449 217.4865 14.05263524968504"}}, "geometry": {"type": "Point", "coordinates": [24.739070581214698, -37.625297029743535]}}]}